COSMOS 2592             
1 65268U 25182B   26068.82965940  .00005658  18620-5  15007-4 0  9993
2 65268  96.5859   2.0195 0008800 153.5140 206.6590 15.96360125 31845
STARLINK-37067          
1 68086U 26042T   26068.75002315 -.01280197  53656-3 -20697-2 0  9991
2 68086  53.1606 194.9752 0000832  59.1903   5.7355 16.02834170  2063
