[{"OBJECT_NAME":"COSMOS 2592","OBJECT_ID":"2025-182B","EPOCH":"2026-03-09T19:54:42.573024","MEAN_MOTION":15.96360125,"ECCENTRICITY":0.00088001,"INCLINATION":96.5859,"RA_OF_ASC_NODE":2.0195,"ARG_OF_PERICENTER":153.514,"MEAN_ANOMALY":206.659,"EPHEMERIS_TYPE":0,"CLASSIFICATION_TYPE":"U","NORAD_CAT_ID":65268,"ELEMENT_SET_NO":999,"REV_AT_EPOCH":3184,"BSTAR":1.5006985e-5,"MEAN_MOTION_DOT":5.658e-5,"MEAN_MOTION_DDOT":1.861987e-6},{"OBJECT_NAME":"OBJECT T","OBJECT_ID":"2026-042T","EPOCH":"2026-03-09T18:00:02.000160","MEAN_MOTION":16.0283417,"ECCENTRICITY":8.328e-5,"INCLINATION":53.1606,"RA_OF_ASC_NODE":194.9752,"ARG_OF_PERICENTER":59.1903,"MEAN_ANOMALY":5.7355,"EPHEMERIS_TYPE":0,"CLASSIFICATION_TYPE":"U","NORAD_CAT_ID":68086,"ELEMENT_SET_NO":999,"REV_AT_EPOCH":206,"BSTAR":-0.0020696651,"MEAN_MOTION_DOT":-0.01280197,"MEAN_MOTION_DDOT":0.00053656391}]
